{"type": "FeatureCollection", "features": [ {"type": "Feature", "properties": {"norad_id": 33905, "name": "COSMOS 2251 DEB", "group": "cosmos-2251-debris", "lat": 24.114814881814944, "lon": -45.02665020211257, "alt_km": 814.1841183595898, "timestamp": "2025-12-17T15:50:10.174660+00:00", "meta": {"OBJECT_NAME": "COSMOS 2251 DEB", "OBJECT_ID": "1993-036DJ", "EPOCH": "2025-12-15T22:11:28.020768", "MEAN_MOTION": 14.35398798, "ECCENTRICITY": 0.00586866, "INCLINATION": 73.887, "RA_OF_ASC_NODE": 310.7489, "ARG_OF_PERICENTER": 199.6032, "MEAN_ANOMALY": 222.7358, "EPHEMERIS_TYPE": 0, "CLASSIFICATION_TYPE": "U", "NORAD_CAT_ID": 33905, "ELEMENT_SET_NO": 999, "REV_AT_EPOCH": 87733, "BSTAR": 0.00049785438, "MEAN_MOTION_DOT": 1.43e-05, "MEAN_MOTION_DDOT": 0}, "tle": {"line1": "1 33905U 93036DJ  25349.92462987  .00001430  00000+0  49785-3 0  9994", "line2": "2 33905  73.8870 310.7489 0058686 199.6032 222.7358 14.35398798877334"}}, "geometry": {"type": "Point", "coordinates": [-45.02665020211257, 24.114814881814944]}}, {"type": "Feature", "properties": {"norad_id": 33906, "name": "COSMOS 2251 DEB", "group": "cosmos-2251-debris", "lat": -61.042266215252575, "lon": -79.04188589715017, "alt_km": 691.0527433044745, "timestamp": "2025-12-17T15:50:10.174685+00:00", "meta": {"OBJECT_NAME": "COSMOS 2251 DEB", "OBJECT_ID": "1993-036DK", "EPOCH": "2025-12-17T08:25:58.563264", "MEAN_MOTION": 14.57169941, "ECCENTRICITY": 0.00368112, "INCLINATION": 74.0301, "RA_OF_ASC_NODE": 312.7099, "ARG_OF_PERICENTER": 341.4661, "MEAN_ANOMALY": 135.8625, "EPHEMERIS_TYPE": 0, "CLASSIFICATION_TYPE": "U", "NORAD_CAT_ID": 33906, "ELEMENT_SET_NO": 999, "REV_AT_EPOCH": 88075, "BSTAR": 0.0015367895, "MEAN_MOTION_DOT": 6.977e-05, "MEAN_MOTION_DDOT": 0}, "tle": {"line1": "1 33906U 93036DK  25351.35137226  .00006977  00000+0  15368-2 0  9990", "line2": "2 33906  74.0301 312.7099 0036811 341.4661 135.8625 14.57169941880758"}}, "geometry": {"type": "Point", "coordinates": [-79.04188589715017, -61.042266215252575]}}, {"type": "Feature", "properties": {"norad_id": 33907, "name": "COSMOS 2251 DEB", "group": "cosmos-2251-debris", "lat": 21.173814547324984, "lon": -161.6351353049821, "alt_km": 773.3480453401753, "timestamp": "2025-12-17T15:50:10.174698+00:00", "meta": {"OBJECT_NAME": "COSMOS 2251 DEB", "OBJECT_ID": "1993-036DL", "EPOCH": "2025-12-17T03:39:15.429888", "MEAN_MOTION": 14.30545392, "ECCENTRICITY": 0.01119341, "INCLINATION": 74.0704, "RA_OF_ASC_NODE": 25.6378, "ARG_OF_PERICENTER": 79.7916, "MEAN_ANOMALY": 343.821, "EPHEMERIS_TYPE": 0, "CLASSIFICATION_TYPE": "U", "NORAD_CAT_ID": 33907, "ELEMENT_SET_NO": 999, "REV_AT_EPOCH": 86643, "BSTAR": 0.0014165033, "MEAN_MOTION_DOT": 3.932e-05, "MEAN_MOTION_DDOT": 0}, "tle": {"line1": "1 33907U 93036DL  25351.15226192  .00003932  00000+0  14165-2 0  9992", "line2": "2 33907  74.0704  25.6378 0111934  79.7916 343.8210 14.30545392866439"}}, "geometry": {"type": "Point", "coordinates": [-161.6351353049821, 21.173814547324984]}}, {"type": "Feature", "properties": {"norad_id": 33908, "name": "COSMOS 2251 DEB", "group": "cosmos-2251-debris", "lat": 43.619921927394735, "lon": 0.9928217962375644, "alt_km": 848.4681553523505, "timestamp": "2025-12-17T15:50:10.174709+00:00", "meta": {"OBJECT_NAME": "COSMOS 2251 DEB", "OBJECT_ID": "1993-036DM", "EPOCH": "2025-12-16T23:49:40.585440", "MEAN_MOTION": 14.07373523, "ECCENTRICITY": 0.02227545, "INCLINATION": 73.8375, "RA_OF_ASC_NODE": 198.2188, "ARG_OF_PERICENTER": 220.953, "MEAN_ANOMALY": 137.4694, "EPHEMERIS_TYPE": 0, "CLASSIFICATION_TYPE": "U", "NORAD_CAT_ID": 33908, "ELEMENT_SET_NO": 999, "REV_AT_EPOCH": 85533, "BSTAR": 0.0015294469, "MEAN_MOTION_DOT": 3.198e-05, "MEAN_MOTION_DDOT": 0}, "tle": {"line1": "1 33908U 93036DM  25350.99283085  .00003198  00000+0  15294-2 0  9996", "line2": "2 33908  73.8375 198.2188 0222754 220.9530 137.4694 14.07373523855331"}}, "geometry": {"type": "Point", "coordinates": [0.9928217962375644, 43.619921927394735]}}, {"type": "Feature", "properties": {"norad_id": 33911, "name": "COSMOS 2251 DEB", "group": "cosmos-2251-debris", "lat": 19.77005436841112, "lon": 158.15656641660544, "alt_km": 641.4719403332547, "timestamp": "2025-12-17T15:50:10.174720+00:00", "meta": {"OBJECT_NAME": "COSMOS 2251 DEB", "OBJECT_ID": "1993-036DQ", "EPOCH": "2025-12-16T12:19:27.835104", "MEAN_MOTION": 14.74948598, "ECCENTRICITY": 0.00141449, "INCLINATION": 74.0899, "RA_OF_ASC_NODE": 154.5037, "ARG_OF_PERICENTER": 92.4217, "MEAN_ANOMALY": 324.165, "EPHEMERIS_TYPE": 0, "CLASSIFICATION_TYPE": "U", "NORAD_CAT_ID": 33911, "ELEMENT_SET_NO": 999, "REV_AT_EPOCH": 88700, "BSTAR": 0.0014509711, "MEAN_MOTION_DOT": 9.748e-05, "MEAN_MOTION_DDOT": 0}, "tle": {"line1": "1 33911U 93036DQ  25350.51351661  .00009748  00000+0  14510-2 0  9991", "line2": "2 33911  74.0899 154.5037 0014144  92.4217 324.1650 14.74948598887003"}}, "geometry": {"type": "Point", "coordinates": [158.15656641660544, 19.77005436841112]}}, {"type": "Feature", "properties": {"norad_id": 33912, "name": "COSMOS 2251 DEB", "group": "cosmos-2251-debris", "lat": -38.67891844293946, "lon": 13.707567482145224, "alt_km": 719.1495810302149, "timestamp": "2025-12-17T15:50:10.174730+00:00", "meta": {"OBJECT_NAME": "COSMOS 2251 DEB", "OBJECT_ID": "1993-036DR", "EPOCH": "2025-12-16T22:49:14.026656", "MEAN_MOTION": 14.51918638, "ECCENTRICITY": 0.00114126, "INCLINATION": 74.0328, "RA_OF_ASC_NODE": 181.7923, "ARG_OF_PERICENTER": 260.6615, "MEAN_ANOMALY": 215.5914, "EPHEMERIS_TYPE": 0, "CLASSIFICATION_TYPE": "U", "NORAD_CAT_ID": 33912, "ELEMENT_SET_NO": 999, "REV_AT_EPOCH": 88494, "BSTAR": 0.00056247411, "MEAN_MOTION_DOT": 2.243e-05, "MEAN_MOTION_DDOT": 0}, "tle": {"line1": "1 33912U 93036DR  25350.95085679  .00002243  00000+0  56247-3 0  9990", "line2": "2 33912  74.0328 181.7923 0011412 260.6615 215.5914 14.51918638884946"}}, "geometry": {"type": "Point", "coordinates": [13.707567482145224, -38.67891844293946]}}, {"type": "Feature", "properties": {"norad_id": 33913, "name": "COSMOS 2251 DEB", "group": "cosmos-2251-debris", "lat": -61.1063899601931, "lon": 25.679200915264598, "alt_km": 707.7880611915407, "timestamp": "2025-12-17T15:50:10.174741+00:00", "meta": {"OBJECT_NAME": "COSMOS 2251 DEB", "OBJECT_ID": "1993-036DS", "EPOCH": "2025-12-16T18:53:11.445792", "MEAN_MOTION": 14.48502998, "ECCENTRICITY": 0.00481593, "INCLINATION": 74.0325, "RA_OF_ASC_NODE": 176.0622, "ARG_OF_PERICENTER": 277.8729, "MEAN_ANOMALY": 97.9587, "EPHEMERIS_TYPE": 0, "CLASSIFICATION_TYPE": "U", "NORAD_CAT_ID": 33913, "ELEMENT_SET_NO": 999, "REV_AT_EPOCH": 88516, "BSTAR": 0.00043490616, "MEAN_MOTION_DOT": 1.628e-05, "MEAN_MOTION_DDOT": 0}, "tle": {"line1": "1 33913U 93036DS  25350.78693803  .00001628  00000+0  43491-3 0  9999", "line2": "2 33913  74.0325 176.0622 0048159 277.8729  97.9587 14.48502998885168"}}, "geometry": {"type": "Point", "coordinates": [25.679200915264598, -61.1063899601931]}}, {"type": "Feature", "properties": {"norad_id": 33914, "name": "COSMOS 2251 DEB", "group": "cosmos-2251-debris", "lat": -58.4506785802879, "lon": -20.691209825392303, "alt_km": 1218.2481929076084, "timestamp": "2025-12-17T15:50:10.174752+00:00", "meta": {"OBJECT_NAME": "COSMOS 2251 DEB", "OBJECT_ID": "1993-036DT", "EPOCH": "2025-12-17T07:27:36.270144", "MEAN_MOTION": 13.71987759, "ECCENTRICITY": 0.03009349, "INCLINATION": 74.0912, "RA_OF_ASC_NODE": 7.5617, "ARG_OF_PERICENTER": 109.4888, "MEAN_ANOMALY": 265.5854, "EPHEMERIS_TYPE": 0, "CLASSIFICATION_TYPE": "U", "NORAD_CAT_ID": 33914, "ELEMENT_SET_NO": 999, "REV_AT_EPOCH": 84144, "BSTAR": 0.00025013891, "MEAN_MOTION_DOT": 2.94e-06, "MEAN_MOTION_DDOT": 0}, "tle": {"line1": "1 33914U 93036DT  25351.31083646  .00000294  00000+0  25014-3 0  9997", "line2": "2 33914  74.0912   7.5617 0300934 109.4888 265.5854 13.71987759841441"}}, "geometry": {"type": "Point", "coordinates": [-20.691209825392303, -58.4506785802879]}}, {"type": "Feature", "properties": {"norad_id": 33915, "name": "COSMOS 2251 DEB", "group": "cosmos-2251-debris", "lat": 72.96322173528141, "lon": 136.0752743349711, "alt_km": 697.4088524112976, "timestamp": "2025-12-17T15:50:10.174762+00:00", "meta": {"OBJECT_NAME": "COSMOS 2251 DEB", "OBJECT_ID": "1993-036DU", "EPOCH": "2025-12-17T08:46:31.649376", "MEAN_MOTION": 14.35093684, "ECCENTRICITY": 0.01041907, "INCLINATION": 74.0435, "RA_OF_ASC_NODE": 25.6294, "ARG_OF_PERICENTER": 116.9436, "MEAN_ANOMALY": 260.1756, "EPHEMERIS_TYPE": 0, "CLASSIFICATION_TYPE": "U", "NORAD_CAT_ID": 33915, "ELEMENT_SET_NO": 999, "REV_AT_EPOCH": 87824, "BSTAR": 0.00030088188, "MEAN_MOTION_DOT": 8.87e-06, "MEAN_MOTION_DDOT": 0}, "tle": {"line1": "1 33915U 93036DU  25351.36564409  .00000887  00000+0  30088-3 0  9999", "line2": "2 33915  74.0435  25.6294 0104190 116.9436 260.1756 14.35093684878248"}}, "geometry": {"type": "Point", "coordinates": [136.0752743349711, 72.96322173528141]}}, {"type": "Feature", "properties": {"norad_id": 33916, "name": "COSMOS 2251 DEB", "group": "cosmos-2251-debris", "lat": 36.98902866042169, "lon": -159.9328957183933, "alt_km": 884.2851255971291, "timestamp": "2025-12-17T15:50:10.174772+00:00", "meta": {"OBJECT_NAME": "COSMOS 2251 DEB", "OBJECT_ID": "1993-036DV", "EPOCH": "2025-12-17T06:44:00.264768", "MEAN_MOTION": 13.68619352, "ECCENTRICITY": 0.03251535, "INCLINATION": 74.0525, "RA_OF_ASC_NODE": 33.1276, "ARG_OF_PERICENTER": 204.305, "MEAN_ANOMALY": 232.1154, "EPHEMERIS_TYPE": 0, "CLASSIFICATION_TYPE": "U", "NORAD_CAT_ID": 33916, "ELEMENT_SET_NO": 999, "REV_AT_EPOCH": 83953, "BSTAR": 0.00035029239, "MEAN_MOTION_DOT": 4.12e-06, "MEAN_MOTION_DDOT": 0}, "tle": {"line1": "1 33916U 93036DV  25351.28055862  .00000412  00000+0  35029-3 0  9993", "line2": "2 33916  74.0525  33.1276 0325153 204.3050 232.1154 13.68619352839532"}}, "geometry": {"type": "Point", "coordinates": [-159.9328957183933, 36.98902866042169]}}]}